{
    "links": {
        "self": "http://www.neowsapp.com/rest/v1/neo/3511832?api_key=iIulBulltgU6a56xZRHN4H3l9WmuAYTsLGpBGhQ2"
    },
    "id": "3511832",
    "neo_reference_id": "3511832",
    "name": "(2010 EG43)",
    "designation": "2010 EG43",
    "nasa_jpl_url": "http://ssd.jpl.nasa.gov/sbdb.cgi?sstr=3511832",
    "absolute_magnitude_h": 24.9,
    "estimated_diameter": {
        "kilometers": {
            "estimated_diameter_min": 0.0278326768,
            "estimated_diameter_max": 0.0622357573
        },
        "meters": {
            "estimated_diameter_min": 27.8326768072,
            "estimated_diameter_max": 62.2357573367
        },
        "miles": {
            "estimated_diameter_min": 0.0172944182,
            "estimated_diameter_max": 0.0386714948
        },
        "feet": {
            "estimated_diameter_min": 91.3145593761,
            "estimated_diameter_max": 204.1855621004
        }
    },
    "is_potentially_hazardous_asteroid": false,
    "close_approach_data": [
        {
            "close_approach_date": "2010-03-02",
            "close_approach_date_full": "2010-Mar-02 00:50",
            "epoch_date_close_approach": 1267491000000,
            "relative_velocity": {
                "kilometers_per_second": "5.4800123639",
                "kilometers_per_hour": "19728.0445099067",
                "miles_per_hour": "12258.2396567251"
            },
            "miss_distance": {
                "astronomical": "0.1050420422",
                "lunar": "40.8613544158",
                "kilometers": "15714065.773570114",
                "miles": "9764267.6965870132"
            },
            "orbiting_body": "Earth"
        }
    ],
    "orbital_data": {
        "orbit_id": "10",
        "orbit_determination_date": "2017-04-06 08:58:11",
        "first_observation_date": "2010-03-13",
        "last_observation_date": "2010-03-26",
        "data_arc_in_days": 13,
        "observations_used": 39,
        "orbit_uncertainty": "8",
        "minimum_orbit_intersection": ".104355",
        "jupiter_tisserand_invariant": "3.991",
        "epoch_osculation": "2455272.5",
        "eccentricity": ".3888828308692578",
        "semi_major_axis": "1.780291756688578",
        "inclination": "7.660467475863747",
        "ascending_node_longitude": "352.8900634345231",
        "orbital_period": "867.6312747453848",
        "perihelion_distance": "1.08796685857432",
        "perihelion_argument": "159.4352952121795",
        "aphelion_distance": "2.472616654802837",
        "perihelion_time": "2455248.425200965159",
        "mean_anomaly": "9.989183083662075",
        "mean_motion": ".4149228024377587",
        "equinox": "J2000",
        "orbit_class": {
            "orbit_class_type": "AMO",
            "orbit_class_description": "Near-Earth asteroid orbits similar to that of 1221 Amor",
            "orbit_class_range": "1.017 AU < q (perihelion) < 1.3 AU"
        }
    },
    "is_sentry_object": false
}